LYNK TOWER 5            
1 59121U 24043Z   26068.92489786  .00009048  00000+0  31902-3 0  9994
2 59121  97.5458 204.7305 0010406 234.6422 125.3846 15.29454506111860
STARLINK-32459          
1 61715U 24196J   26068.46426489 -.00007243  00000+0 -23249-3 0  9997
2 61715  53.1602 102.2746 0000807 100.2867 259.8225 15.30222698 77128
